start=new Date('2022-02-16T00:00:00.000Z').valueOf();
sats=[{"CLASSIFICATION_TYPE":"U","FILE":"3301463","PERIAPSIS":"557.817","SITE":"AFETR","MEAN_MOTION":"15.02565927","BSTAR":"0.00047178000000","OBJECT_NAME":"STARLINK-1299","ELEMENT_SET_NO":"999","MEAN_ANOMALY":"266.7755","LAUNCH_DATE":"2020-03-18","MEAN_ELEMENT_THEORY":"SGP4","MEAN_MOTION_DDOT":"0.0000000000000","EPOCH":"2022-02-15T20:12:26.703936","ARG_OF_PERICENTER":"93.3425","ECCENTRICITY":"0.00016900","DECAY_DATE":null,"PERIOD":"95.836","COUNTRY_CODE":"US","INCLINATION":"53.0020","SEMIMAJOR_AXIS":"6937.124","REF_FRAME":"TEME","MEAN_MOTION_DOT":"0.00006077","EPHEMERIS_TYPE":"0","OBJECT_ID":"2020-019BL","REV_AT_EPOCH":"10564","OBJECT_TYPE":"PAYLOAD","TIME_SYSTEM":"UTC","GP_ID":"196057337","APOAPSIS":"560.162","CENTER_NAME":"EARTH","TLE_LINE2":"2 45418  53.0020   3.7716 0001690  93.3425 266.7755 15.02565927105646","NORAD_CAT_ID":"45418","TLE_LINE1":"1 45418U 20019BL  22046.84197574  .00006077  00000-0  47178-3 0  9993","RA_OF_ASC_NODE":"3.7716","RCS_SIZE":"LARGE"},{"INCLINATION":"53.0565","COUNTRY_CODE":"US","SEMIMAJOR_AXIS":"6925.373","DECAY_DATE":null,"ECCENTRICITY":"0.00018280","PERIOD":"95.593","ARG_OF_PERICENTER":"67.3204","EPOCH":"2022-02-15T20:50:08.704320","MEAN_MOTION_DDOT":"0.0000000000000","MEAN_ELEMENT_THEORY":"SGP4","MEAN_ANOMALY":"292.7978","LAUNCH_DATE":"2020-03-18","ELEMENT_SET_NO":"999","OBJECT_NAME":"STARLINK-1308","BSTAR":"-0.00005725700000","MEAN_MOTION":"15.06392178","SITE":"AFETR","PERIAPSIS":"545.972","FILE":"3301463","CLASSIFICATION_TYPE":"U","RCS_SIZE":"LARGE","RA_OF_ASC_NODE":"343.2634","TLE_LINE1":"1 45419U 20019BM  22046.86815630 -.00001134  00000-0 -57257-4 0  9997","NORAD_CAT_ID":"45419","TLE_LINE2":"2 45419  53.0565 343.2634 0001828  67.3204 292.7978 15.06392178105973","CENTER_NAME":"EARTH","GP_ID":"196056583","APOAPSIS":"548.503","TIME_SYSTEM":"UTC","OBJECT_TYPE":"PAYLOAD","REV_AT_EPOCH":"10597","OBJECT_ID":"2020-019BM","EPHEMERIS_TYPE":"0","MEAN_MOTION_DOT":"-0.00001134","REF_FRAME":"TEME"},{"REF_FRAME":"TEME","MEAN_MOTION_DOT":"-0.00001183","EPHEMERIS_TYPE":"0","OBJECT_ID":"2020-025A","REV_AT_EPOCH":"10160","TIME_SYSTEM":"UTC","OBJECT_TYPE":"PAYLOAD","APOAPSIS":"548.272","GP_ID":"196056347","CENTER_NAME":"EARTH","TLE_LINE2":"2 45531  53.0558 283.1044 0001519  70.5143 289.6010 15.06397969101603","NORAD_CAT_ID":"45531","TLE_LINE1":"1 45531U 20025A   22046.90316568 -.00001183  00000-0 -60532-4 0  9994","RA_OF_ASC_NODE":"283.1044","RCS_SIZE":"LARGE","CLASSIFICATION_TYPE":"U","FILE":"3301463","PERIAPSIS":"546.168","SITE":"AFETR","MEAN_MOTION":"15.06397969","OBJECT_NAME":"STARLINK-1329","BSTAR":"-0.00006053200000","ELEMENT_SET_NO":"999","LAUNCH_DATE":"2020-04-22","MEAN_ANOMALY":"289.6010","MEAN_ELEMENT_THEORY":"SGP4","MEAN_MOTION_DDOT":"0.0000000000000","ARG_OF_PERICENTER":"70.5143","EPOCH":"2022-02-15T21:40:33.514752","ECCENTRICITY":"0.00015190","DECAY_DATE":null,"PERIOD":"95.592","COUNTRY_CODE":"US","SEMIMAJOR_AXIS":"6925.355","INCLINATION":"53.0558"},{"EPHEMERIS_TYPE":"0","MEAN_MOTION_DOT":"0.00005755","REF_FRAME":"TEME","GP_ID":"196057098","CENTER_NAME":"EARTH","APOAPSIS":"548.464","OBJECT_TYPE":"PAYLOAD","TIME_SYSTEM":"UTC","REV_AT_EPOCH":"10160","OBJECT_ID":"2020-025B","RA_OF_ASC_NODE":"283.0592","TLE_LINE1":"1 45532U 20025B   22046.91427397  .00005755  00000-0  40513-3 0  9992","NORAD_CAT_ID":"45532","TLE_LINE2":"2 45532  53.0530 283.0592 0001729  80.8876 279.2308 15.06382666101604","RCS_SIZE":"LARGE","SITE":"AFETR","PERIAPSIS":"546.069","FILE":"3301463","CLASSIFICATION_TYPE":"U","ELEMENT_SET_NO":"999","BSTAR":"0.00040513000000","OBJECT_NAME":"STARLINK-1338","MEAN_MOTION":"15.06382666","EPOCH":"2022-02-15T21:56:33.271008","ARG_OF_PERICENTER":"80.8876","MEAN_MOTION_DDOT":"0.0000000000000","MEAN_ELEMENT_THEORY":"SGP4","MEAN_ANOMALY":"279.2308","LAUNCH_DATE":"2020-04-22","INCLINATION":"53.0530","COUNTRY_CODE":"US","SEMIMAJOR_AXIS":"6925.402","PERIOD":"95.593","DECAY_DATE":null,"ECCENTRICITY":"0.00017290"},{"REF_FRAME":"TEME","MEAN_MOTION_DOT":"0.00038570","EPHEMERIS_TYPE":"0","OBJECT_ID":"2020-025C","REV_AT_EPOCH":"10180","TIME_SYSTEM":"UTC","OBJECT_TYPE":"PAYLOAD","APOAPSIS":"463.849","GP_ID":"196057349","CENTER_NAME":"EARTH","TLE_LINE2":"2 45533  53.0486 268.5671 0000972 142.4516 217.6553 15.34238947101809","NORAD_CAT_ID":"45533","RA_OF_ASC_NODE":"268.5671","TLE_LINE1":"1 45533U 20025C   22046.87089195  .00038570  00000-0  11526-2 0  9990","RCS_SIZE":"LARGE","CLASSIFICATION_TYPE":"U","FILE":"3301463","PERIAPSIS":"462.519","SITE":"AFETR","MEAN_MOTION":"15.34238947","OBJECT_NAME":"STARLINK-1339","BSTAR":"0.00115260000000","ELEMENT_SET_NO":"999","LAUNCH_DATE":"2020-04-22","MEAN_ANOMALY":"217.6553","MEAN_ELEMENT_THEORY":"SGP4","MEAN_MOTION_DDOT":"0.0000000000000","ARG_OF_PERICENTER":"142.4516","EPOCH":"2022-02-15T20:54:05.064480","DECAY_DATE":null,"PERIOD":"93.858","ECCENTRICITY":"0.00009720","SEMIMAJOR_AXIS":"6841.319","COUNTRY_CODE":"US","INCLINATION":"53.0486"},{"OBJECT_NAME":"STARLINK-1341","BSTAR":"-0.00008505000000","MEAN_MOTION":"15.06394244","ELEMENT_SET_NO":"999","FILE":"3301463","CLASSIFICATION_TYPE":"U","SITE":"AFETR","PERIAPSIS":"546.132","DECAY_DATE":null,"ECCENTRICITY":"0.00015870","PERIOD":"95.593","SEMIMAJOR_AXIS":"6925.366","COUNTRY_CODE":"US","INCLINATION":"53.0530","MEAN_ELEMENT_THEORY":"SGP4","MEAN_ANOMALY":"279.4287","LAUNCH_DATE":"2020-04-22","ARG_OF_PERICENTER":"80.6881","EPOCH":"2022-02-15T22:12:24.799392","MEAN_MOTION_DDOT":"0.0000000000000","REV_AT_EPOCH":"10160","OBJECT_ID":"2020-025D","GP_ID":"196056595","APOAPSIS":"548.330","CENTER_NAME":"EARTH","TIME_SYSTEM":"UTC","OBJECT_TYPE":"PAYLOAD","REF_FRAME":"TEME","EPHEMERIS_TYPE":"0","MEAN_MOTION_DOT":"-0.00001548","RCS_SIZE":"LARGE","NORAD_CAT_ID":"45534","TLE_LINE2":"2 45534  53.0530 283.0084 0001587  80.6881 279.4287 15.06394244101601","RA_OF_ASC_NODE":"283.0084","TLE_LINE1":"1 45534U 20025D   22046.92528703 -.00001548  00000-0 -85050-4 0  9992"},{"ELEMENT_SET_NO":"999","OBJECT_NAME":"STARLINK-1350","BSTAR":"0.00009982900000","MEAN_MOTION":"15.06396351","SITE":"AFETR","PERIAPSIS":"546.280","FILE":"3301463","CLASSIFICATION_TYPE":"U","COUNTRY_CODE":"US","SEMIMAJOR_AXIS":"6925.360","INCLINATION":"53.0514","ECCENTRICITY":"0.00013640","DECAY_DATE":null,"PERIOD":"95.592","ARG_OF_PERICENTER":"81.9554","EPOCH":"2022-02-15T21:03:24.937344","MEAN_MOTION_DDOT":"0.0000000000000","MEAN_ELEMENT_THEORY":"SGP4","LAUNCH_DATE":"2020-04-22","MEAN_ANOMALY":"278.1590","CENTER_NAME":"EARTH","GP_ID":"196056847","APOAPSIS":"548.169","TIME_SYSTEM":"UTC","OBJECT_TYPE":"PAYLOAD","REV_AT_EPOCH":"10160","OBJECT_ID":"2020-025E","EPHEMERIS_TYPE":"0","MEAN_MOTION_DOT":"0.00001206","REF_FRAME":"TEME","RCS_SIZE":"LARGE","RA_OF_ASC_NODE":"283.2342","TLE_LINE1":"1 45535U 20025E   22046.87737196  .00001206  00000-0  99829-4 0  9993","NORAD_CAT_ID":"45535","TLE_LINE2":"2 45535  53.0514 283.2342 0001364  81.9554 278.1590 15.06396351101601"},{"CLASSIFICATION_TYPE":"U","FILE":"3301463","PERIAPSIS":"546.050","SITE":"AFETR","MEAN_MOTION":"15.06384780","OBJECT_NAME":"STARLINK-1352","BSTAR":"0.00009268800000","ELEMENT_SET_NO":"999","MEAN_ANOMALY":"291.4068","LAUNCH_DATE":"2020-04-22","MEAN_ELEMENT_THEORY":"SGP4","MEAN_MOTION_DDOT":"0.0000000000000","ARG_OF_PERICENTER":"68.7108","EPOCH":"2022-02-15T21:08:44.123136","DECAY_DATE":null,"ECCENTRICITY":"0.00017470","PERIOD":"95.593","SEMIMAJOR_AXIS":"6925.395","COUNTRY_CODE":"US","INCLINATION":"53.0543","REF_FRAME":"TEME","MEAN_MOTION_DOT":"0.00001099","EPHEMERIS_TYPE":"0","OBJECT_ID":"2020-025F","REV_AT_EPOCH":"10159","TIME_SYSTEM":"UTC","OBJECT_TYPE":"PAYLOAD","CENTER_NAME":"EARTH","GP_ID":"196057598","APOAPSIS":"548.470","TLE_LINE2":"2 45536  53.0543 283.2062 0001747  68.7108 291.4068 15.06384780101595","NORAD_CAT_ID":"45536","TLE_LINE1":"1 45536U 20025F   22046.88106624  .00001099  00000-0  92688-4 0  9997","RA_OF_ASC_NODE":"283.2062","RCS_SIZE":"LARGE"},{"OBJECT_TYPE":"PAYLOAD","TIME_SYSTEM":"UTC","CENTER_NAME":"EARTH","GP_ID":"196057849","APOAPSIS":"514.065","OBJECT_ID":"2020-025G","REV_AT_EPOCH":"10202","MEAN_MOTION_DOT":"0.00013287","EPHEMERIS_TYPE":"0","REF_FRAME":"TEME","RCS_SIZE":"LARGE","RA_OF_ASC_NODE":"250.7538","TLE_LINE1":"1 45537U 20025G   22046.79565423  .00013287  00000-0  66667-3 0  9993","TLE_LINE2":"2 45537  53.0006 250.7538 0001533  79.3818 280.7348 15.17629692102023","NORAD_CAT_ID":"45537","ELEMENT_SET_NO":"999","MEAN_MOTION":"15.17629692","BSTAR":"0.00066667000000","OBJECT_NAME":"STARLINK-1353","PERIAPSIS":"511.952","SITE":"AFETR","CLASSIFICATION_TYPE":"U","FILE":"3301463","INCLINATION":"53.0006","COUNTRY_CODE":"US","SEMIMAJOR_AXIS":"6891.144","DECAY_DATE":null,"PERIOD":"94.885","ECCENTRICITY":"0.00015330","MEAN_MOTION_DDOT":"0.0000000000000","EPOCH":"2022-02-15T19:05:44.525472","ARG_OF_PERICENTER":"79.3818","LAUNCH_DATE":"2020-04-22","MEAN_ANOMALY":"280.7348","MEAN_ELEMENT_THEORY":"SGP4"},{"MEAN_MOTION_DOT":"-0.00000898","EPHEMERIS_TYPE":"0","REF_FRAME":"TEME","TIME_SYSTEM":"UTC","OBJECT_TYPE":"PAYLOAD","APOAPSIS":"548.364","GP_ID":"196056096","CENTER_NAME":"EARTH","OBJECT_ID":"2020-025H","REV_AT_EPOCH":"10160","RA_OF_ASC_NODE":"283.0910","TLE_LINE1":"1 45538U 20025H   22046.90685859 -.00000898  00000-0 -41416-4 0  9995","TLE_LINE2":"2 45538  53.0530 283.0910 0001638  66.6390 293.4771 15.06394688101605","NORAD_CAT_ID":"45538","RCS_SIZE":"LARGE","PERIAPSIS":"546.095","SITE":"AFETR","CLASSIFICATION_TYPE":"U","FILE":"3301463","ELEMENT_SET_NO":"999","MEAN_MOTION":"15.06394688","OBJECT_NAME":"STARLINK-1362","BSTAR":"-0.00004141600000","MEAN_MOTION_DDOT":"0.0000000000000","ARG_OF_PERICENTER":"66.6390","EPOCH":"2022-02-15T21:45:52.582176","MEAN_ANOMALY":"293.4771","LAUNCH_DATE":"2020-04-22","MEAN_ELEMENT_THEORY":"SGP4","COUNTRY_CODE":"US","INCLINATION":"53.0530","SEMIMAJOR_AXIS":"6925.365","ECCENTRICITY":"0.00016380","DECAY_DATE":null,"PERIOD":"95.592"}];
